[{"OBJECT_NAME":"HONGYUN 1","OBJECT_ID":"2018-108A","EPOCH":"2026-03-10T00:13:12.376992","MEAN_MOTION":13.50804473,"ECCENTRICITY":0.00109018,"INCLINATION":99.7768,"RA_OF_ASC_NODE":92.5913,"ARG_OF_PERICENTER":263.9195,"MEAN_ANOMALY":96.0698,"EPHEMERIS_TYPE":0,"CLASSIFICATION_TYPE":"U","NORAD_CAT_ID":43871,"ELEMENT_SET_NO":999,"REV_AT_EPOCH":35569,"BSTAR":-0.00022113401,"MEAN_MOTION_DOT":-1.87e-6,"MEAN_MOTION_DDOT":0},{"OBJECT_NAME":"QIANFAN-6","OBJECT_ID":"2024-140F","EPOCH":"2026-03-09T20:58:31.458144","MEAN_MOTION":13.5100238,"ECCENTRICITY":0.00118147,"INCLINATION":88.9713,"RA_OF_ASC_NODE":290.0144,"ARG_OF_PERICENTER":310.0782,"MEAN_ANOMALY":49.9333,"EPHEMERIS_TYPE":0,"CLASSIFICATION_TYPE":"U","NORAD_CAT_ID":60384,"ELEMENT_SET_NO":999,"REV_AT_EPOCH":7926,"BSTAR":9.3119447e-5,"MEAN_MOTION_DOT":7.2e-7,"MEAN_MOTION_DDOT":0}]
